{
  "norad_id": 40358,
  "name": "COSMOS 2502",
  "history": [
    {
      "epoch": "2026-03-28T20:41:56.360832",
      "apogee_km": 907.3799641819778,
      "perigee_km": 895.3801171114937,
      "latitude_deg": -51.06015490116675,
      "longitude_deg": 98.59595648013055,
      "semi_major_axis_km": 7279.517040646736,
      "eccentricity": 0.00082422,
      "inclination_deg": 67.1524,
      "raan_deg": 202.8201,
      "arg_perigee_deg": 275.9209,
      "mean_anomaly_deg": 84.0937,
      "mean_motion_rev_day": 13.97812473
    },
    {
      "epoch": "2026-03-29T05:17:06.491328",
      "apogee_km": 907.397534361573,
      "perigee_km": 895.3499440881569,
      "latitude_deg": -20.15155332314205,
      "longitude_deg": 132.94054592004977,
      "semi_major_axis_km": 7279.510739224865,
      "eccentricity": 0.0008275,
      "inclination_deg": 67.1524,
      "raan_deg": 201.9493,
      "arg_perigee_deg": 275.9509,
      "mean_anomaly_deg": 84.0633,
      "mean_motion_rev_day": 13.97814288
    }
  ]
}